ONEWEB-0055             
1 45443U 20020V   22152.45471354  .00000146  00000+0  37625-3 0  9995
2 45443  87.8839 314.6357 0001484  96.9374 263.1923 13.11416316109079
ONEWEB-0093             
1 45444U 20020W   22151.74335284  .00000537  00000+0  14801-2 0  9992
2 45444  87.8828 314.8023 0001448  95.9822 264.1471 13.11416409109035
ONEWEB-0029             
1 45445U 20020X   22151.84202776  .00000127  00000+0  32139-3 0  9993
2 45445  87.8830 314.7680 0001616  81.6340 278.4971 13.11414015109024
ONEWEB-0068             
1 45446U 20020Y   22151.73548014  .00000279  00000+0  75231-3 0  9998
2 45446  87.8829 314.8009 0001289  93.5535 266.5740 13.11420201108950
ONEWEB-0046             
1 45447U 20020Z   22151.73212234  .00000133  00000+0  34072-3 0  9998
2 45447  87.8833 314.8107 0001861  91.5676 268.5665 13.11419403108966
ONEWEB-0063             
1 45448U 20020AA  22151.68500131  .00000317  00000+0  85799-3 0  9995
2 45448  87.8823 314.8077 0002021  91.7873 268.3486 13.11415680109044
ONEWEB-0019             
1 45449U 20020AB  22151.88919348 -.00000239  00000+0 -70886-3 0  9998
2 45449  87.8835 314.7626 0001741  99.4933 260.6392 13.11418180108911
ONEWEB-0094             
1 45450U 20020AC  22151.82812398 -.00000014  00000+0 -68282-4 0  9990
2 45450  87.9034 299.4573 0001752 101.6775 258.4553 13.17645937111755
ONEWEB-0087             
1 45451U 20020AD  22152.45694362  .00000080  00000+0  18988-3 0  9998
2 45451  87.8836 314.6865 0001520  81.2840 278.8460 13.11415235109040
ONEWEB-0082             
1 45452U 20020AE  22151.69623432 -.00000158  00000+0 -48089-3 0  9997
2 45452  87.8828 314.7735 0001199  87.7146 272.4119 13.11415043109027
ONEWEB-0050             
1 45453U 20020AF  22151.65375309  .00002267  00000+0  19453-3 0  9995
2 45453  87.5396 246.1445 0023369 271.4940  88.3615 14.96820809119769
ONEWEB-0034             
1 45454U 20020AG  22151.40897859 -.00000502  00000+0 -14517-2 0  9995
2 45454  87.8827 314.8522 0001625  88.4368 271.6946 13.11417109108901
ONEWEB-0060             
1 45455U 20020AH  22151.72305636 -.00000234  00000+0 -69707-3 0  9992
2 45455  87.8832 314.7980 0001758  90.6404 269.4925 13.11419997108907
ONEWEB-0086             
1 45456U 20020AJ  22151.74109683  .00000455  00000+0  12484-2 0  9991
2 45456  87.8831 314.7868 0001474  90.2820 269.8477 13.11419171108961
ONEWEB-0088             
1 45457U 20020AK  22151.71641507 -.00000475  00000+0 -13754-2 0  9990
2 45457  87.8824 314.8059 0001723  86.9852 273.1473 13.11418810108896
ONEWEB-0102             
1 47258U 20100A   22152.34428623  .00001502  00000+0  41412-2 0  9994
2 47258  87.8837 284.1145 0001853 106.5641 253.5691 13.12404678 71010
ONEWEB-0109             
1 47259U 20100B   22152.43109960 -.00008733  00000+0 -24316-1 0  9993
2 47259  87.8876 284.1367 0001717 102.5949 257.5371 13.12494627 70859
ONEWEB-0110             
1 47260U 20100C   22152.30191879 -.00007970  00000+0 -22200-1 0  9993
2 47260  87.8908 284.1304 0001760 118.4763 241.6543 13.12470516 71000
ONEWEB-0111             
1 47261U 20100D   22152.33361470  .00013749  00000+0  38171-1 0  9996
2 47261  87.8862 284.1288 0001687 108.6567 251.4745 13.12363800 70843
ONEWEB-0114             
1 47262U 20100E   22151.60299860  .00007603  00000+0  21095-1 0  9998
2 47262  87.8928 284.2454 0002459 111.2354 248.9037 13.12394194 70705
ONEWEB-0117             
1 47263U 20100F   22152.35698979 -.00011078  00000+0 -30836-1 0  9992
2 47263  87.8879 284.1526 0001010 112.8478 247.2758 13.12509855 70812
ONEWEB-0118             
1 47264U 20100G   22152.31244316  .00009235  00000+0  25630-1 0  9997
2 47264  87.8871 284.1128 0002855 106.2058 253.9385 13.12387572 71004
ONEWEB-0119             
1 47265U 20100H   22151.80632144  .00007245  00000+0  20098-1 0  9993
2 47265  87.8829 284.2253 0001245 109.0540 251.0723 13.12409802 70912
ONEWEB-0120             
1 47266U 20100J   22152.36953539  .00013758  00000+0  38108-1 0  9997
2 47266  87.8922 284.1895 0001220 113.4127 246.7129 13.12520959 71011
ONEWEB-0121             
1 47267U 20100K   22152.35275040 -.00006875  00000+0 -19150-1 0  9991
2 47267  87.8880 284.2257 0001614  99.7039 260.4272 13.12478512 70921
ONEWEB-0122             
1 47268U 20100L   22152.27012046  .00000332  00000+0  88766-3 0  9999
2 47268  87.8920 284.1531 0001761 108.4685 251.6635 13.12444732 70820
ONEWEB-0123             
1 47269U 20100M   22151.80845176  .00004610  00000+0  12777-1 0  9996
2 47269  87.8848 284.2267 0001791 102.0067 258.1262 13.12413807 70900
ONEWEB-0124             
1 47270U 20100N   22152.32934950  .00018768  00000+0  52101-1 0  9999
2 47270  87.8957 284.0787 0001320  94.7757 265.3522 13.12348316 70854
ONEWEB-0125             
1 47271U 20100P   22152.30618322 -.00012762  00000+0 -35532-1 0  9999
2 47271  87.8854 284.1866 0001976 110.5303 249.6038 13.12496385 70915
ONEWEB-0126             
1 47272U 20100Q   22152.33254260  .00015181  00000+0  42141-1 0  9990
2 47272  87.8858 284.1739 0001782 109.2474 250.8848 13.12364915 70981
ONEWEB-0127             
1 47273U 20100R   22152.29553440  .00000125  00000+0  31220-3 0  9998
2 47273  87.8874 284.0773 0001933 105.8588 254.2753 13.12443685 71002
ONEWEB-0128             
1 47274U 20100S   22152.31669178  .00004399  00000+0  12191-1 0  9999
2 47274  87.8883 284.1118 0001929 110.2806 249.8530 13.12414320 71024
ONEWEB-0129             
1 47275U 20100T   22152.37391012 -.00000004  00000+0 -46886-4 0  9997
2 47275  87.8887 284.1559 0003261 130.5186 229.6227 13.12471434 70965
ONEWEB-0130             
1 47276U 20100U   22152.32307482 -.00002485  00000+0 -69443-2 0  9998
2 47276  87.8879 284.1611 0001691 104.2502 255.8814 13.12454239 70924
ONEWEB-0131             
1 47277U 20100V   22151.63482392 -.00000244  00000+0 -71360-3 0  9999
2 47277  87.8882 284.2448 0001614  98.5062 261.6249 13.12443828 70872
ONEWEB-0132             
1 47278U 20100W   22152.27438550 -.00004138  00000+0 -11539-1 0  9994
2 47278  87.8846 284.1517 0001231 120.9090 239.2160 13.12472578 70850
ONEWEB-0133             
1 47279U 20100X   22151.60514928  .00004412  00000+0  12228-1 0  9994
2 47279  87.8878 284.2355 0001662 101.0737 259.0579 13.12413232 70927
ONEWEB-0134             
1 47280U 20100Y   22152.33572992  .00012281  00000+0  34090-1 0  9996
2 47280  87.8903 284.0998 0001540 112.0054 248.1238 13.12376199 70996
ONEWEB-0135             
1 47281U 20100Z   22152.38028450 -.00010487  00000+0 -29201-1 0  9993
2 47281  87.8879 284.0689 0001706 112.4026 247.7283 13.12488372 71020
ONEWEB-0136             
1 47282U 20100AA  22151.63905851 -.00006006  00000+0 -16732-1 0  9997
2 47282  87.8893 284.2966 0001579 135.7123 224.4132 13.12475714 70852
ONEWEB-0137             
1 47283U 20100AB  22152.28502204 -.00016076  00000+0 -44740-1 0  9993
2 47283  87.8883 284.1435 0002061 110.5705 249.5645 13.12532881 70841
ONEWEB-0138             
1 47284U 20100AC  22152.33785878  .00010181  00000+0  28250-1 0  9997
2 47284  87.8909 284.1490 0001781 111.0818 249.0501 13.12406203 70935
ONEWEB-0139             
1 47285U 20100AD  22152.31032234  .00011552  00000+0  32070-1 0  9995
2 47285  87.8864 284.2040 0001155 112.7726 247.3524 13.12369156 71009
ONEWEB-0140             
1 47286U 20100AE  22152.33152529  .00012457  00000+0  34607-1 0  9991
2 47286  87.8852 284.1358 0002864 105.0366 255.1080 13.12319723 70964
ONEWEB-0141             
1 47287U 20100AF  22152.35381758 -.00007852  00000+0 -21863-1 0  9997
2 47287  87.8890 284.1070 0002367 103.8203 256.3189 13.12495989 70964
ONEWEB-0142             
1 47288U 20100AG  22151.81165086  .00001179  00000+0  32413-2 0  9990
2 47288  87.8851 284.2989 0001975 106.5361 253.5985 13.12432398 70880
ONEWEB-0143             
1 47289U 20100AH  22152.29981131 -.00004443  00000+0 -12379-1 0  9998
2 47289  87.8842 284.1309 0002538 103.9963 256.1448 13.12513425 70920
ONEWEB-0144             
1 47290U 20100AJ  22151.81484759  .00000412  00000+0  11095-2 0  9996
2 47290  87.8924 284.2310 0001593 107.1562 252.9741 13.12482684 70783
ONEWEB-0145             
1 47291U 20100AK  22151.63266102 -.00000282  00000+0 -82112-3 0  9993
2 47291  87.8853 284.2487 0001831 104.4835 255.6497 13.12401646 70954
ONEWEB-0146             
1 47292U 20100AL  22152.31456228  .00007013  00000+0  19458-1 0  9998
2 47292  87.8881 284.1542 0001649  76.2882 283.8430 13.12392220 70959
ONEWEB-0147             
1 47293U 20100AM  22152.28286520 -.00012928  00000+0 -35981-1 0  9993
2 47293  87.8863 284.1481 0002218 116.9386 243.1969 13.12519973 70846
ONEWEB-0115             
1 48042U 21025A   22152.24473650 -.00000115  00000+0 -35068-3 0  9994
2 48042  87.9058 253.5209 0001646 101.3284 258.8030 13.13471978 59722
ONEWEB-0152             
1 48043U 21025B   22152.25592774  .00000141  00000+0  35034-3 0  9995
2 48043  87.9000 253.5738 0001672 107.2726 252.8586 13.13471793 59682
ONEWEB-0153             
1 48044U 21025C   22152.23351965 -.00000245  00000+0 -70640-3 0  9998
2 48044  87.8934 253.6543 0001943 104.8162 255.3182 13.13470347 59674
ONEWEB-0154             
1 48045U 21025D   22152.53598535 -.00001075  00000+0 -29799-2 0  9998
2 48045  87.9026 253.5833 0001553 102.4521 257.6782 13.13468831 59675
ONEWEB-0116             
1 48046U 21025E   22151.58824345  .00000372  00000+0  98437-3 0  9997
2 48046  87.9025 253.7577 0001839  91.8650 268.2690 13.13472906 59688
ONEWEB-0150             
1 48047U 21025F   22152.24695562 -.00000146  00000+0 -43339-3 0  9991
2 48047  87.9081 253.4742 0002246 108.1696 251.9677 13.13468786 59660
ONEWEB-0107             
1 48048U 21025G   22151.56360446  .00000119  00000+0  29015-3 0  9999
2 48048  87.9068 253.6354 0002320 115.3689 244.7681 13.13472320 59554
ONEWEB-0101             
1 48049U 21025H   22152.21335487  .00000034  00000+0  58532-4 0  9993
2 48049  87.9054 253.5296 0001916 112.2188 247.9145 13.13468693 59619
